0 FENGYUN 1C DEB
1 31477U 99025BVR 13283.85696823  .00000166  00000-0  13240-3 0  8918
2 31477 099.1047 305.2479 0119088 130.9827 354.0621 14.00590479331334
0 FENGYUN 1C DEB
1 31477U 99025BVR 13285.92725847  .00000155  00000-0  12556-3 0  8925
2 31477 099.1042 307.3109 0119163 125.2741 352.7283 14.00591281331621
0 FENGYUN 1C DEB
1 31477U 99025BVR 13287.92753828  .00000233  00000-0  17492-3 0  8939
2 31477 099.1037 309.3037 0119235 119.7700 358.3868 14.00592447331907
0 FENGYUN 1C DEB
1 31477U 99025BVR 13289.92761814  .00000181  00000-0  14195-3 0  8945
2 31477 099.1033 311.2964 0119307 114.2601 003.0525 14.00593527332189
0 FENGYUN 1C DEB
1 31477U 99025BVR 13293.98902704  .00000207  00000-0  15821-3 0  8958
2 31477 099.1033 315.3420 0119436 103.0955 321.2094 14.00595424332759
0 FENGYUN 1C DEB
1 31477U 99025BVR 13295.98932786  .00000238  00000-0  17780-3 0  8964
2 31477 099.1032 317.3346 0119496 097.5941 327.0023 14.00596514333034
